{"type": "FeatureCollection", "features": [ {"type": "Feature", "properties": {"norad_id": 66865, "name": "STARLINK-36117", "group": "last-30-days", "lat": -42.546426943800185, "lon": 14.843269219148079, "alt_km": 295.6359070236158, "timestamp": "2025-12-13T22:39:28.446136+00:00", "meta": {"OBJECT_NAME": "STARLINK-36117", "OBJECT_ID": "2025-281T", "EPOCH": "2025-12-13T06:29:56.977440", "MEAN_MOTION": 15.91140315, "ECCENTRICITY": 0.00062363, "INCLINATION": 43.0007, "RA_OF_ASC_NODE": 118.9831, "ARG_OF_PERICENTER": 247.6418, "MEAN_ANOMALY": 112.3796, "EPHEMERIS_TYPE": 0, "CLASSIFICATION_TYPE": "U", "NORAD_CAT_ID": 66865, "ELEMENT_SET_NO": 999, "REV_AT_EPOCH": 288, "BSTAR": 0.0022425931, "MEAN_MOTION_DOT": 0.00735683, "MEAN_MOTION_DDOT": 0.00022427456}, "tle": {"line1": "1 66865U 25281T   25347.27079835  .00735683  22427-3  22426-2 0  9991", "line2": "2 66865  43.0007 118.9831 0006236 247.6418 112.3796 15.91140315  2884"}}, "geometry": {"type": "Point", "coordinates": [14.843269219148079, -42.546426943800185]}}, {"type": "Feature", "properties": {"norad_id": 66866, "name": "STARLINK-36126", "group": "last-30-days", "lat": -42.85491793799765, "lon": 19.425380348791652, "alt_km": 299.41923134010176, "timestamp": "2025-12-13T22:39:28.446146+00:00", "meta": {"OBJECT_NAME": "STARLINK-36126", "OBJECT_ID": "2025-281U", "EPOCH": "2025-12-13T01:58:04.276416", "MEAN_MOTION": 15.91335279, "ECCENTRICITY": 0.00036506, "INCLINATION": 43.0014, "RA_OF_ASC_NODE": 120.149, "ARG_OF_PERICENTER": 344.597, "MEAN_ANOMALY": 15.4794, "EPHEMERIS_TYPE": 0, "CLASSIFICATION_TYPE": "U", "NORAD_CAT_ID": 66866, "ELEMENT_SET_NO": 999, "REV_AT_EPOCH": 284, "BSTAR": 0.001304503, "MEAN_MOTION_DOT": 0.00431541, "MEAN_MOTION_DDOT": 7.8577334e-05}, "tle": {"line1": "1 66866U 25281U   25347.08199394  .00431541  78577-4  13045-2 0  9995", "line2": "2 66866  43.0014 120.1490 0003650 344.5970  15.4794 15.91335279  2848"}}, "geometry": {"type": "Point", "coordinates": [19.425380348791652, -42.85491793799765]}}, {"type": "Feature", "properties": {"norad_id": 66867, "name": "STARLINK-36101", "group": "last-30-days", "lat": -42.978396913108156, "lon": 24.131161350516233, "alt_km": 298.9215000456261, "timestamp": "2025-12-13T22:39:28.446156+00:00", "meta": {"OBJECT_NAME": "STARLINK-36101", "OBJECT_ID": "2025-281V", "EPOCH": "2025-12-13T01:57:17.169408", "MEAN_MOTION": 15.91387471, "ECCENTRICITY": 0.00040392, "INCLINATION": 43.0014, "RA_OF_ASC_NODE": 120.1442, "ARG_OF_PERICENTER": 347.9531, "MEAN_ANOMALY": 12.1247, "EPHEMERIS_TYPE": 0, "CLASSIFICATION_TYPE": "U", "NORAD_CAT_ID": 66867, "ELEMENT_SET_NO": 999, "REV_AT_EPOCH": 284, "BSTAR": 0.0014865949, "MEAN_MOTION_DOT": 0.00493399, "MEAN_MOTION_DDOT": 0.000101243}, "tle": {"line1": "1 66867U 25281V   25347.08144872  .00493399  10124-3  14866-2 0  9991", "line2": "2 66867  43.0014 120.1442 0004039 347.9531  12.1247 15.91387471  2846"}}, "geometry": {"type": "Point", "coordinates": [24.131161350516233, -42.978396913108156]}}, {"type": "Feature", "properties": {"norad_id": 66868, "name": "STARLINK-36108", "group": "last-30-days", "lat": -42.97013757245004, "lon": 23.29406193362318, "alt_km": 302.1014365622159, "timestamp": "2025-12-13T22:39:28.446170+00:00", "meta": {"OBJECT_NAME": "STARLINK-36108", "OBJECT_ID": "2025-281W", "EPOCH": "2025-12-13T06:27:41.841792", "MEAN_MOTION": 15.90499704, "ECCENTRICITY": 0.00032359, "INCLINATION": 43.0009, "RA_OF_ASC_NODE": 118.9699, "ARG_OF_PERICENTER": 246.2667, "MEAN_ANOMALY": 113.7868, "EPHEMERIS_TYPE": 0, "CLASSIFICATION_TYPE": "U", "NORAD_CAT_ID": 66868, "ELEMENT_SET_NO": 999, "REV_AT_EPOCH": 287, "BSTAR": 5.5186275e-05, "MEAN_MOTION_DOT": 0.00017022, "MEAN_MOTION_DDOT": 0}, "tle": {"line1": "1 66868U 25281W   25347.26923428  .00017022  00000+0  55186-4 0  9999", "line2": "2 66868  43.0009 118.9699 0003235 246.2667 113.7868 15.90499704  2870"}}, "geometry": {"type": "Point", "coordinates": [23.29406193362318, -42.97013757245004]}}, {"type": "Feature", "properties": {"norad_id": 66869, "name": "STARLINK-36092", "group": "last-30-days", "lat": -42.69688313315267, "lon": 32.817155929834286, "alt_km": 298.1170094318459, "timestamp": "2025-12-13T22:39:28.446182+00:00", "meta": {"OBJECT_NAME": "STARLINK-36092", "OBJECT_ID": "2025-281X", "EPOCH": "2025-12-13T01:55:45.595776", "MEAN_MOTION": 15.91502527, "ECCENTRICITY": 0.00041167, "INCLINATION": 43.0013, "RA_OF_ASC_NODE": 120.1353, "ARG_OF_PERICENTER": 341.7678, "MEAN_ANOMALY": 18.3049, "EPHEMERIS_TYPE": 0, "CLASSIFICATION_TYPE": "U", "NORAD_CAT_ID": 66869, "ELEMENT_SET_NO": 999, "REV_AT_EPOCH": 284, "BSTAR": 0.0014316425, "MEAN_MOTION_DOT": 0.00477973, "MEAN_MOTION_DDOT": 9.5405516e-05}, "tle": {"line1": "1 66869U 25281X   25347.08038884  .00477973  95406-4  14316-2 0  9995", "line2": "2 66869  43.0013 120.1353 0004116 341.7678  18.3049 15.91502527  2847"}}, "geometry": {"type": "Point", "coordinates": [32.817155929834286, -42.69688313315267]}}, {"type": "Feature", "properties": {"norad_id": 66870, "name": "STARLINK-36114", "group": "last-30-days", "lat": -42.55820744591796, "lon": 34.5693007988426, "alt_km": 298.045985337013, "timestamp": "2025-12-13T22:39:28.446192+00:00", "meta": {"OBJECT_NAME": "STARLINK-36114", "OBJECT_ID": "2025-281Y", "EPOCH": "2025-12-13T06:26:11.296320", "MEAN_MOTION": 15.91056469, "ECCENTRICITY": 0.00049871, "INCLINATION": 43.0001, "RA_OF_ASC_NODE": 118.961, "ARG_OF_PERICENTER": 229.5903, "MEAN_ANOMALY": 130.4538, "EPHEMERIS_TYPE": 0, "CLASSIFICATION_TYPE": "U", "NORAD_CAT_ID": 66870, "ELEMENT_SET_NO": 999, "REV_AT_EPOCH": 287, "BSTAR": 0.0017450127, "MEAN_MOTION_DOT": 0.00569729, "MEAN_MOTION_DDOT": 0.00013346303}, "tle": {"line1": "1 66870U 25281Y   25347.26818630  .00569729  13346-3  17450-2 0  9997", "line2": "2 66870  43.0001 118.9610 0004987 229.5903 130.4538 15.91056469  2878"}}, "geometry": {"type": "Point", "coordinates": [34.5693007988426, -42.55820744591796]}}, {"type": "Feature", "properties": {"norad_id": 66871, "name": "STARLINK-36095", "group": "last-30-days", "lat": -37.72857143702436, "lon": 58.58225100238038, "alt_km": 267.8336061404989, "timestamp": "2025-12-13T22:39:28.446203+00:00", "meta": {"OBJECT_NAME": "STARLINK-36095", "OBJECT_ID": "2025-281Z", "EPOCH": "2025-12-13T06:24:47.413152", "MEAN_MOTION": 15.93885984, "ECCENTRICITY": 0.00155348, "INCLINATION": 42.9991, "RA_OF_ASC_NODE": 118.9544, "ARG_OF_PERICENTER": 285.2949, "MEAN_ANOMALY": 74.621, "EPHEMERIS_TYPE": 0, "CLASSIFICATION_TYPE": "U", "NORAD_CAT_ID": 66871, "ELEMENT_SET_NO": 999, "REV_AT_EPOCH": 287, "BSTAR": 0.010670731, "MEAN_MOTION_DOT": 0.03426071, "MEAN_MOTION_DDOT": 0.013967933}, "tle": {"line1": "1 66871U 25281Z   25347.26721543  .03426071  13968-1  10671-1 0  9994", "line2": "2 66871  42.9991 118.9544 0015534 285.2949  74.6210 15.93885984  2870"}}, "geometry": {"type": "Point", "coordinates": [58.58225100238038, -37.72857143702436]}}, {"type": "Feature", "properties": {"norad_id": 66872, "name": "STARLINK-36082", "group": "last-30-days", "lat": -40.601769243383764, "lon": 47.828311644797296, "alt_km": 296.0894243040884, "timestamp": "2025-12-13T22:39:28.446213+00:00", "meta": {"OBJECT_NAME": "STARLINK-36082", "OBJECT_ID": "2025-281AA", "EPOCH": "2025-12-13T01:53:19.046688", "MEAN_MOTION": 15.91953898, "ECCENTRICITY": 0.00021391, "INCLINATION": 43.0006, "RA_OF_ASC_NODE": 120.1206, "ARG_OF_PERICENTER": 251.7048, "MEAN_ANOMALY": 108.3595, "EPHEMERIS_TYPE": 0, "CLASSIFICATION_TYPE": "U", "NORAD_CAT_ID": 66872, "ELEMENT_SET_NO": 999, "REV_AT_EPOCH": 284, "BSTAR": 0.0016548178, "MEAN_MOTION_DOT": 0.00565451, "MEAN_MOTION_DDOT": 0.00013292806}, "tle": {"line1": "1 66872U 25281AA  25347.07869267  .00565451  13293-3  16548-2 0  9996", "line2": "2 66872  43.0006 120.1206 0002139 251.7048 108.3595 15.91953898  2841"}}, "geometry": {"type": "Point", "coordinates": [47.828311644797296, -40.601769243383764]}}, {"type": "Feature", "properties": {"norad_id": 66873, "name": "STARLINK-36128", "group": "last-30-days", "lat": -39.00295500305548, "lon": 54.36210087858516, "alt_km": 296.10752832219714, "timestamp": "2025-12-13T22:39:28.446225+00:00", "meta": {"OBJECT_NAME": "STARLINK-36128", "OBJECT_ID": "2025-281AB", "EPOCH": "2025-12-13T06:22:31.479168", "MEAN_MOTION": 15.91370019, "ECCENTRICITY": 0.00062366, "INCLINATION": 42.9998, "RA_OF_ASC_NODE": 118.9396, "ARG_OF_PERICENTER": 248.7514, "MEAN_ANOMALY": 111.2695, "EPHEMERIS_TYPE": 0, "CLASSIFICATION_TYPE": "U", "NORAD_CAT_ID": 66873, "ELEMENT_SET_NO": 999, "REV_AT_EPOCH": 282, "BSTAR": 0.0018355712, "MEAN_MOTION_DOT": 0.00609508, "MEAN_MOTION_DDOT": 0.00015324511}, "tle": {"line1": "1 66873U 25281AB  25347.26564212  .00609508  15325-3  18356-2 0  9999", "line2": "2 66873  42.9998 118.9396 0006236 248.7514 111.2695 15.91370019  2821"}}, "geometry": {"type": "Point", "coordinates": [54.36210087858516, -39.00295500305548]}}, {"type": "Feature", "properties": {"norad_id": 66874, "name": "STARLINK-36129", "group": "last-30-days", "lat": -41.3397010345794, "lon": 43.98797302888633, "alt_km": 302.35186129466274, "timestamp": "2025-12-13T22:39:28.446236+00:00", "meta": {"OBJECT_NAME": "STARLINK-36129", "OBJECT_ID": "2025-281AC", "EPOCH": "2025-12-13T06:23:51.780192", "MEAN_MOTION": 15.90688164, "ECCENTRICITY": 0.00034295, "INCLINATION": 43.0003, "RA_OF_ASC_NODE": 118.9474, "ARG_OF_PERICENTER": 244.1758, "MEAN_ANOMALY": 115.8763, "EPHEMERIS_TYPE": 0, "CLASSIFICATION_TYPE": "U", "NORAD_CAT_ID": 66874, "ELEMENT_SET_NO": 999, "REV_AT_EPOCH": 287, "BSTAR": -0.00050052295, "MEAN_MOTION_DOT": -0.00159103, "MEAN_MOTION_DDOT": 0}, "tle": {"line1": "1 66874U 25281AC  25347.26657153 -.00159103  00000+0 -50052-3 0  9990", "line2": "2 66874  43.0003 118.9474 0003429 244.1758 115.8763 15.90688164  2872"}}, "geometry": {"type": "Point", "coordinates": [43.98797302888633, -41.3397010345794]}}]}